[{"OBJECT_NAME":"ISS (ZARYA)","OBJECT_ID":"1998-067A","EPOCH":"2026-04-23T13:18:50.975424","MEAN_MOTION":15.48911267,"ECCENTRICITY":0.00068194,"INCLINATION":51.632,"RA_OF_ASC_NODE":210.5007,"ARG_OF_PERICENTER":341.8336,"MEAN_ANOMALY":18.2408,"EPHEMERIS_TYPE":0,"CLASSIFICATION_TYPE":"U","NORAD_CAT_ID":25544,"ELEMENT_SET_NO":999,"REV_AT_EPOCH":56328,"BSTAR":0.00016716018,"MEAN_MOTION_DOT":8.745e-5,"MEAN_MOTION_DDOT":0},{"OBJECT_NAME":"POISK","OBJECT_ID":"2009-060A","EPOCH":"2026-04-23T13:18:50.975424","MEAN_MOTION":15.48911267,"ECCENTRICITY":0.00068194,"INCLINATION":51.632,"RA_OF_ASC_NODE":210.5007,"ARG_OF_PERICENTER":341.8336,"MEAN_ANOMALY":18.2408,"EPHEMERIS_TYPE":0,"CLASSIFICATION_TYPE":"U","NORAD_CAT_ID":36086,"ELEMENT_SET_NO":999,"REV_AT_EPOCH":56308,"BSTAR":0.00016716018,"MEAN_MOTION_DOT":8.745e-5,"MEAN_MOTION_DDOT":0},{"OBJECT_NAME":"CSS (TIANHE)","OBJECT_ID":"2021-035A","EPOCH":"2026-04-23T13:00:36.976896","MEAN_MOTION":15.62838201,"ECCENTRICITY":0.00067454,"INCLINATION":41.4673,"RA_OF_ASC_NODE":294.8032,"ARG_OF_PERICENTER":259.8887,"MEAN_ANOMALY":100.1192,"EPHEMERIS_TYPE":0,"CLASSIFICATION_TYPE":"U","NORAD_CAT_ID":48274,"ELEMENT_SET_NO":999,"REV_AT_EPOCH":28462,"BSTAR":0.00025055873,"MEAN_MOTION_DOT":0.00023003,"MEAN_MOTION_DDOT":0},{"OBJECT_NAME":"ISS (NAUKA)","OBJECT_ID":"2021-066A","EPOCH":"2026-04-23T13:18:50.975424","MEAN_MOTION":15.48911267,"ECCENTRICITY":0.00068194,"INCLINATION":51.632,"RA_OF_ASC_NODE":210.5007,"ARG_OF_PERICENTER":341.8336,"MEAN_ANOMALY":18.2408,"EPHEMERIS_TYPE":0,"CLASSIFICATION_TYPE":"U","NORAD_CAT_ID":49044,"ELEMENT_SET_NO":999,"REV_AT_EPOCH":56312,"BSTAR":0.00016716018,"MEAN_MOTION_DOT":8.745e-5,"MEAN_MOTION_DDOT":0},{"OBJECT_NAME":"FREGAT DEB","OBJECT_ID":"2011-037PF","EPOCH":"2026-04-21T05:11:50.977536","MEAN_MOTION":12.41014465,"ECCENTRICITY":0.09435538,"INCLINATION":51.6429,"RA_OF_ASC_NODE":173.0397,"ARG_OF_PERICENTER":156.8872,"MEAN_ANOMALY":207.7485,"EPHEMERIS_TYPE":0,"CLASSIFICATION_TYPE":"U","NORAD_CAT_ID":49271,"ELEMENT_SET_NO":999,"REV_AT_EPOCH":21797,"BSTAR":0.0047934804,"MEAN_MOTION_DOT":3.101e-5,"MEAN_MOTION_DDOT":0},{"OBJECT_NAME":"CSS (WENTIAN)","OBJECT_ID":"2022-085A","EPOCH":"2026-04-23T13:00:36.976896","MEAN_MOTION":15.62838201,"ECCENTRICITY":0.00067454,"INCLINATION":41.4673,"RA_OF_ASC_NODE":294.8032,"ARG_OF_PERICENTER":259.8887,"MEAN_ANOMALY":100.1192,"EPHEMERIS_TYPE":0,"CLASSIFICATION_TYPE":"U","NORAD_CAT_ID":53239,"ELEMENT_SET_NO":999,"REV_AT_EPOCH":28313,"BSTAR":0.00025055873,"MEAN_MOTION_DOT":0.00023003,"MEAN_MOTION_DDOT":0},{"OBJECT_NAME":"CSS (MENGTIAN)","OBJECT_ID":"2022-143A","EPOCH":"2026-04-23T13:00:36.976896","MEAN_MOTION":15.62838201,"ECCENTRICITY":0.00067454,"INCLINATION":41.4673,"RA_OF_ASC_NODE":294.8032,"ARG_OF_PERICENTER":259.8887,"MEAN_ANOMALY":100.1192,"EPHEMERIS_TYPE":0,"CLASSIFICATION_TYPE":"U","NORAD_CAT_ID":54216,"ELEMENT_SET_NO":999,"REV_AT_EPOCH":28406,"BSTAR":0.00025055873,"MEAN_MOTION_DOT":0.00023003,"MEAN_MOTION_DDOT":0},{"OBJECT_NAME":"TIANZHOU-9","OBJECT_ID":"2025-149A","EPOCH":"2026-04-23T13:00:36.976896","MEAN_MOTION":15.62838201,"ECCENTRICITY":0.00067454,"INCLINATION":41.4673,"RA_OF_ASC_NODE":294.8032,"ARG_OF_PERICENTER":259.8887,"MEAN_ANOMALY":100.1192,"EPHEMERIS_TYPE":0,"CLASSIFICATION_TYPE":"U","NORAD_CAT_ID":64786,"ELEMENT_SET_NO":999,"REV_AT_EPOCH":28407,"BSTAR":0.00025055873,"MEAN_MOTION_DOT":0.00023003,"MEAN_MOTION_DDOT":0},{"OBJECT_NAME":"HRC MONOBLOCK CAMERA","OBJECT_ID":"1998-067XR","EPOCH":"2026-04-23T11:18:50.667264","MEAN_MOTION":15.67096183,"ECCENTRICITY":0.00046263,"INCLINATION":51.6262,"RA_OF_ASC_NODE":198.6791,"ARG_OF_PERICENTER":324.2839,"MEAN_ANOMALY":35.7847,"EPHEMERIS_TYPE":0,"CLASSIFICATION_TYPE":"U","NORAD_CAT_ID":66052,"ELEMENT_SET_NO":999,"REV_AT_EPOCH":2940,"BSTAR":0.00042888617,"MEAN_MOTION_DOT":0.00046463,"MEAN_MOTION_DDOT":0},{"OBJECT_NAME":"HTV-X1","OBJECT_ID":"2025-241A","EPOCH":"2026-04-22T23:48:46.558656","MEAN_MOTION":15.32728944,"ECCENTRICITY":0.00078219,"INCLINATION":51.6353,"RA_OF_ASC_NODE":219.4042,"ARG_OF_PERICENTER":344.1053,"MEAN_ANOMALY":15.9682,"EPHEMERIS_TYPE":0,"CLASSIFICATION_TYPE":"U","NORAD_CAT_ID":66174,"ELEMENT_SET_NO":999,"REV_AT_EPOCH":2773,"BSTAR":0.00014900059,"MEAN_MOTION_DOT":4.413e-5,"MEAN_MOTION_DDOT":0},{"OBJECT_NAME":"SZ-21 MODULE","OBJECT_ID":"2025-246C","EPOCH":"2026-04-22T18:21:25.693344","MEAN_MOTION":15.71947588,"ECCENTRICITY":0.00042555,"INCLINATION":41.4735,"RA_OF_ASC_NODE":291.326,"ARG_OF_PERICENTER":310.1381,"MEAN_ANOMALY":49.9089,"EPHEMERIS_TYPE":0,"CLASSIFICATION_TYPE":"U","NORAD_CAT_ID":66515,"ELEMENT_SET_NO":999,"REV_AT_EPOCH":2500,"BSTAR":0.00022143933,"MEAN_MOTION_DOT":0.00029535,"MEAN_MOTION_DDOT":0},{"OBJECT_NAME":"SHENZHOU-22","OBJECT_ID":"2025-272A","EPOCH":"2026-04-23T13:00:36.976896","MEAN_MOTION":15.62838201,"ECCENTRICITY":0.00067454,"INCLINATION":41.4673,"RA_OF_ASC_NODE":294.8032,"ARG_OF_PERICENTER":259.8887,"MEAN_ANOMALY":100.1192,"EPHEMERIS_TYPE":0,"CLASSIFICATION_TYPE":"U","NORAD_CAT_ID":66645,"ELEMENT_SET_NO":999,"REV_AT_EPOCH":28408,"BSTAR":0.00025055873,"MEAN_MOTION_DOT":0.00023003,"MEAN_MOTION_DDOT":0},{"OBJECT_NAME":"SOYUZ-MS 28","OBJECT_ID":"2025-275A","EPOCH":"2026-04-23T13:18:50.975424","MEAN_MOTION":15.48911267,"ECCENTRICITY":0.00068194,"INCLINATION":51.632,"RA_OF_ASC_NODE":210.5007,"ARG_OF_PERICENTER":341.8336,"MEAN_ANOMALY":18.2408,"EPHEMERIS_TYPE":0,"CLASSIFICATION_TYPE":"U","NORAD_CAT_ID":66664,"ELEMENT_SET_NO":999,"REV_AT_EPOCH":56336,"BSTAR":0.00016716018,"MEAN_MOTION_DOT":8.745e-5,"MEAN_MOTION_DDOT":0},{"OBJECT_NAME":"DUPLEX","OBJECT_ID":"1998-067XS","EPOCH":"2026-04-22T12:47:48.774624","MEAN_MOTION":15.58960795,"ECCENTRICITY":0.0004465,"INCLINATION":51.6277,"RA_OF_ASC_NODE":209.6788,"ARG_OF_PERICENTER":329.2874,"MEAN_ANOMALY":30.7857,"EPHEMERIS_TYPE":0,"CLASSIFICATION_TYPE":"U","NORAD_CAT_ID":66906,"ELEMENT_SET_NO":999,"REV_AT_EPOCH":2196,"BSTAR":0.00029226,"MEAN_MOTION_DOT":0.00022718,"MEAN_MOTION_DDOT":0},{"OBJECT_NAME":"ISS OBJECT XT","OBJECT_ID":"1998-067XT","EPOCH":"2026-04-22T12:18:11.447136","MEAN_MOTION":15.91311151,"ECCENTRICITY":0.00119126,"INCLINATION":51.6183,"RA_OF_ASC_NODE":198.9334,"ARG_OF_PERICENTER":345.921,"MEAN_ANOMALY":14.1462,"EPHEMERIS_TYPE":0,"CLASSIFICATION_TYPE":"U","NORAD_CAT_ID":66907,"ELEMENT_SET_NO":999,"REV_AT_EPOCH":2210,"BSTAR":0.0010599586,"MEAN_MOTION_DOT":0.00347235,"MEAN_MOTION_DDOT":5.6416068e-5},{"OBJECT_NAME":"ISS OBJECT XU","OBJECT_ID":"1998-067XU","EPOCH":"2026-04-20T23:52:56.366112","MEAN_MOTION":15.9058448,"ECCENTRICITY":0.00116611,"INCLINATION":51.6197,"RA_OF_ASC_NODE":206.801,"ARG_OF_PERICENTER":338.6358,"MEAN_ANOMALY":21.416,"EPHEMERIS_TYPE":0,"CLASSIFICATION_TYPE":"U","NORAD_CAT_ID":66908,"ELEMENT_SET_NO":999,"REV_AT_EPOCH":2186,"BSTAR":0.0015071062,"MEAN_MOTION_DOT":0.00476464,"MEAN_MOTION_DDOT":9.7406411e-5}]
