ISS (ZARYA)             
1 25544U 98067A   26113.55475666  .00008745  00000+0  16716-3 0  9994
2 25544  51.6320 210.5007 0006819 341.8336  18.2408 15.48911267563287
POISK                   
1 36086U 09060A   26113.55475666  .00008745  00000+0  16716-3 0  9992
2 36086  51.6320 210.5007 0006819 341.8336  18.2408 15.48911267563088
CSS (TIANHE)            
1 48274U 21035A   26113.54209464  .00023003  00000+0  25056-3 0  9991
2 48274  41.4673 294.8032 0006745 259.8887 100.1192 15.62838201284621
ISS (NAUKA)             
1 49044U 21066A   26113.55475666  .00008745  00000+0  16716-3 0  9990
2 49044  51.6320 210.5007 0006819 341.8336  18.2408 15.48911267563121
FREGAT DEB              
1 49271U 11037PF  26111.21656224  .00003101  00000+0  47935-2 0  9998
2 49271  51.6429 173.0397 0943553 156.8872 207.7485 12.41014465217975
CSS (WENTIAN)           
1 53239U 22085A   26113.54209464  .00023003  00000+0  25056-3 0  9994
2 53239  41.4673 294.8032 0006745 259.8887 100.1192 15.62838201283133
CSS (MENGTIAN)          
1 54216U 22143A   26113.54209464  .00023003  00000+0  25056-3 0  9995
2 54216  41.4673 294.8032 0006745 259.8887 100.1192 15.62838201284062
TIANZHOU-9              
1 64786U 25149A   26113.54209464  .00023003  00000+0  25056-3 0  9997
2 64786  41.4673 294.8032 0006745 259.8887 100.1192 15.62838201284076
HRC MONOBLOCK CAMERA    
1 66052U 98067XR  26113.47141976  .00046463  00000+0  42889-3 0  9997
2 66052  51.6262 198.6791 0004626 324.2839  35.7847 15.67096183 29408
HTV-X1                  
1 66174U 25241A   26112.99220554  .00004413  00000+0  14900-3 0  9994
2 66174  51.6353 219.4042 0007821 344.1053  15.9682 15.32728944 27734
SZ-21 MODULE            
1 66515U 25246C   26112.76488071  .00029535  00000+0  22144-3 0  9994
2 66515  41.4735 291.3260 0004255 310.1381  49.9089 15.71947588 25006
SHENZHOU-22             
1 66645U 25272A   26113.54209464  .00023003  00000+0  25056-3 0  9990
2 66645  41.4673 294.8032 0006745 259.8887 100.1192 15.62838201284083
SOYUZ-MS 28             
1 66664U 25275A   26113.55475666  .00008745  00000+0  16716-3 0  9993
2 66664  51.6320 210.5007 0006819 341.8336  18.2408 15.48911267563364
DUPLEX                  
1 66906U 98067XS  26112.53320341  .00022718  00000+0  29226-3 0  9993
2 66906  51.6277 209.6788 0004465 329.2874  30.7857 15.58960795 21964
ISS OBJECT XT           
1 66907U 98067XT  26112.51263249  .00347235  56416-4  10600-2 0  9991
2 66907  51.6183 198.9334 0011912 345.9210  14.1462 15.91311151 22100
ISS OBJECT XU           
1 66908U 98067XU  26110.99509683  .00476464  97406-4  15071-2 0  9995
2 66908  51.6197 206.8010 0011661 338.6358  21.4160 15.90584480 21863
